NORAD_CAT_ID,OBJECT_NAME,OBJECT_TYPE,EPOCH,MEAN_MOTION,ECCENTRICITY,INCLINATION,RA_OF_ASC_NODE,ARG_OF_PERICENTER,MEAN_ANOMALY,BSTAR,MEAN_MOTION_DOT,MEAN_MOTION_DDOT,TLE_LINE0,TLE_LINE1,TLE_LINE2,SEMIMAJOR_AXIS,PERIOD,APOGEE,PERIGEE,DECAYED
51769.0,STARLINK-3621,PAYLOAD,2022-08-23 14:00:01,15.08848031,0.000161,53.2175,28.5841,72.9014,122.3492,-0.0016928,-0.00027134,0.0,0 STARLINK-3621,1 51769U 22017B   22235.58334491 -.00027134  00000-0 -16928-2 0  9998,2 51769  53.2175  28.5841 0001610  72.9014 122.3492 15.08848031  1307,6917.856,95.437,540.835,538.607,0.0
51769.0,STARLINK-3621,PAYLOAD,2022-08-23 22:00:01,15.08822527,0.0001644,53.2173,27.0885,65.4318,141.4781,0.002155,0.00034159,0.0,0 STARLINK-3621,1 51769U 22017B   22235.91668981  .00034159  00000-0  21550-2 0  9999,2 51769  53.2173  27.0885 0001644  65.4318 141.4781 15.08822527  1303,6917.934,95.439,540.936,538.661,0.0
51769.0,STARLINK-3621,PAYLOAD,2022-08-24 08:00:01,15.08820596,0.0001576999999999,53.2173,25.2159,74.8339,236.5067,0.0028258,0.00044948,0.0,0 STARLINK-3621,1 51769U 22017B   22236.33334491  .00044948  00000-0  28258-2 0  9991,2 51769  53.2173  25.2159 0001577  74.8339 236.5067 15.08820596 28800,6917.94,95.439,540.896,538.714,0.0
51769.0,STARLINK-3621,PAYLOAD,2022-08-24 14:00:01,15.08858034,0.0001641999999999,53.2176,24.0949,71.4519,158.5773,-0.001503,-0.0002414,0.0,0 STARLINK-3621,1 51769U 22017B   22236.58334491 -.00024140  00000-0 -15030-2 0  9996,2 51769  53.2176  24.0949 0001642  71.4519 158.5773 15.08858034  1304,6917.825,95.436,540.826,538.554,0.0
51769.0,STARLINK-3621,PAYLOAD,2022-08-24 22:00:00,15.08846748,0.0001636,53.2175,22.5992,64.5372,177.0967,0.00032099,4.825e-05,0.0,0 STARLINK-3621,1 51769U 22017B   22236.91667824  .00004825  00000-0  32099-3 0  9993,2 51769  53.2175  22.5992 0001636  64.5372 177.0967 15.08846748 28890,6917.86,95.437,540.857,538.5930000000002,0.0
51769.0,STARLINK-3621,PAYLOAD,2022-08-25 14:00:01,15.08840438,0.0001565999999999,53.218,19.6057,68.3272,196.486,-0.0014824,-0.00023803,0.0,0 STARLINK-3621,1 51769U 22017B   22237.58334491 -.00023803  00000-0 -14824-2 0  9992,2 51769  53.2180  19.6057 0001566  68.3272 196.4860 15.08840438  1302,6917.879,95.438,540.827,538.661,0.0
51769.0,STARLINK-3621,PAYLOAD,2022-08-25 16:00:00,15.08835707,0.0001619,53.218,19.232,65.7375,291.9754,-0.00081485,-0.00013231,0.0,0 STARLINK-3621,1 51769U 22017B   22237.66667824 -.00013231  00000-0 -81485-3 0  9992,2 51769  53.2180  19.2320 0001619  65.7375 291.9754 15.08835707 29008,6917.894,95.438,540.879,538.639,0.0
51769.0,STARLINK-3621,PAYLOAD,2022-08-25 22:00:00,15.08830677,0.0001587,53.218,18.11,62.2592,214.1412,0.00097246,0.00015219,0.0,0 STARLINK-3621,1 51769U 22017B   22237.91667824  .00015219  00000-0  97246-3 0  9998,2 51769  53.2180  18.1100 0001587  62.2592 214.1412 15.08830677  1301,6917.909000000002,95.438,540.872,538.6759999999998,0.0
51769.0,STARLINK-3621,PAYLOAD,2022-08-26 14:00:01,15.08852692,0.0001584,53.2187,15.1167,67.1512,232.4899,-0.0014487,-0.00023278,0.0,0 STARLINK-3621,1 51769U 22017B   22238.58335648 -.00023278  00000-0 -14487-2 0  9999,2 51769  53.2187  15.1167 0001584  67.1512 232.4899 15.08852692 29146,6917.842,95.437,540.802,538.611,0.0
51769.0,STARLINK-3621,PAYLOAD,2022-08-26 22:00:00,15.08849461,0.0001595999999999,53.2186,13.6208,61.9986,249.1806,0.00031247,4.69e-05,0.0,0 STARLINK-3621,1 51769U 22017B   22238.91667824  .00004690  00000-0  31247-3 0  9999,2 51769  53.2186  13.6208 0001596  61.9986 249.1806 15.08849461  1305,6917.851,95.437,540.821,538.612,0.0
51769.0,STARLINK-3621,PAYLOAD,2022-08-27 14:00:01,15.08847681,0.0001675,53.2191,10.6278,67.908,266.4856,-0.0019464,-0.00031138,0.0,0 STARLINK-3621,1 51769U 22017B   22239.58334491 -.00031138  00000-0 -19464-2 0  9999,2 51769  53.2191  10.6278 0001675  67.9080 266.4856 15.08847681  1303,6917.857,95.437,540.881,538.563,0.0
51769.0,STARLINK-3621,PAYLOAD,2022-08-27 22:00:00,15.08842899,0.0001663,53.2189,9.1318,63.8417,282.1415,-0.00020071,-3.481e-05,0.0,0 STARLINK-3621,1 51769U 22017B   22239.91667824 -.00003481  00000-0 -20071-3 0  9992,2 51769  53.2189   9.1318 0001663  63.8417 282.1415 15.08842899 29340,6917.871999999999,95.437,540.887,538.586,0.0
51769.0,STARLINK-3621,PAYLOAD,2022-08-28 14:00:01,15.08865447,0.0001615,53.2192,6.1392,67.6744,301.5053,-0.002018,-0.00032283,0.0,0 STARLINK-3621,1 51769U 22017B   22240.58334491 -.00032283  00000-0 -20180-2 0  9990,2 51769  53.2192   6.1392 0001615  67.6744 301.5053 15.08865447  1309,6917.803000000001,95.436,540.785,538.55,0.0
51769.0,STARLINK-3621,PAYLOAD,2022-08-28 22:00:00,15.08852265,0.0001534,53.2189,4.643,63.4055,317.383,-0.0023057,-0.00036808,0.0,0 STARLINK-3621,1 51769U 22017B   22240.91667824 -.00036808  00000-0 -23057-2 0  9999,2 51769  53.2189   4.6430 0001534  63.4055 317.3830 15.08852265  1302,6917.843000000003,95.437,540.769,538.6469999999998,0.0
51769.0,STARLINK-3621,PAYLOAD,2022-08-29 08:00:01,15.08826063,0.0001441999999999,53.2192,2.7714,74.268,51.0044,0.0013168,0.00020723,0.0,0 STARLINK-3621,1 51769U 22017B   22241.33334491  .00020723  00000-0  13168-2 0  9996,2 51769  53.2192   2.7714 0001442  74.2680  51.0044 15.08826063 29555,6917.9230000000025,95.438,540.786,538.79,0.0
51769.0,STARLINK-3621,PAYLOAD,2022-08-29 14:00:01,15.08842706,0.0001499,53.2189,1.6508,67.0609,336.9014,-0.0013064,-0.00021021,0.0,0 STARLINK-3621,1 51769U 22017B   22241.58334491 -.00021021  00000-0 -13064-2 0  9992,2 51769  53.2189   1.6508 0001499  67.0609 336.9014 15.08842706  1300,6917.871999999999,95.437,540.774,538.7,0.0
51769.0,STARLINK-3621,PAYLOAD,2022-08-29 22:00:00,15.08862845,0.0001440999999999,53.2185,0.1543,62.8211,352.7297,-0.0027483,-0.00043789,0.0,0 STARLINK-3621,1 51769U 22017B   22241.91667824 -.00043789  00000-0 -27483-2 0  9993,2 51769  53.2185   0.1543 0001441  62.8211 352.7297 15.08862845  1303,6917.811,95.436,540.672,538.679,0.0
51769.0,STARLINK-3621,PAYLOAD,2022-08-30 06:00:00,15.08804185,0.0001286999999999,53.2184,358.6567,72.4271,354.7325,0.0022428,0.00035551,0.0,0 STARLINK-3621,1 51769U 22017B   22242.25001157  .00035551  00000-0  22428-2 0  9992,2 51769  53.2184 358.6567 0001287  72.4271 354.7325 15.08804185 29699,6917.99,95.44,540.745,538.965,0.0
51769.0,STARLINK-3621,PAYLOAD,2022-08-30 14:00:01,15.08829413,0.0001389,53.2184,357.1623,64.6871,14.039,-0.0010029,-0.00016209,0.0,0 STARLINK-3621,1 51769U 22017B   22242.58334491 -.00016209  00000-0 -10029-2 0  9993,2 51769  53.2184 357.1623 0001389  64.6871  14.0390 15.08829413  1305,6917.913000000001,95.438,540.739,538.817,0.0
51769.0,STARLINK-3621,PAYLOAD,2022-08-30 22:00:00,15.08840808,0.0001363,53.2181,355.6657,61.3396,28.9579,-0.001141,-0.00018401,0.0,0 STARLINK-3621,1 51769U 22017B   22242.91667824 -.00018401  00000-0 -11410-2 0  9990,2 51769  53.2181 355.6657 0001363  61.3396  28.9579 15.08840808 29797,6917.878000000002,95.438,540.686,538.8,0.0
51769.0,STARLINK-3621,PAYLOAD,2022-08-31 14:00:01,15.08845143,0.0001416,53.218,352.6735,62.9829,50.4964,-0.00064586,-0.00010553,0.0,0 STARLINK-3621,1 51769U 22017B   22243.58334491 -.00010553  00000-0 -64586-3 0  9998,2 51769  53.2180 352.6735 0001416  62.9829  50.4964 15.08845143 29893,6917.865,95.437,540.7090000000002,538.75,0.0
51769.0,STARLINK-3621,PAYLOAD,2022-08-31 22:00:00,15.08865153,0.0001405,53.2179,351.1767,60.3519,64.7188,-0.0020348,-0.00032548,0.0,0 STARLINK-3621,1 51769U 22017B   22243.91667824 -.00032548  00000-0 -20348-2 0  9999,2 51769  53.2179 351.1767 0001405  60.3519  64.7188 15.08865153  1301,6917.804,95.436,540.64,538.697,0.0
51769.0,STARLINK-3621,PAYLOAD,2022-09-01 14:00:01,15.08829575,0.000158,53.218,348.1845,62.9264,85.3877,-0.00029298,-4.946e-05,0.0,0 STARLINK-3621,1 51769U 22017B   22244.58335648 -.00004946  00000-0 -29298-3 0  9994,2 51769  53.2180 348.1845 0001580  62.9264  85.3877 15.08829575 30040,6917.9119999999975,95.438,540.87,538.684,0.0
51769.0,STARLINK-3621,PAYLOAD,2022-09-01 22:00:00,15.08850056,0.0001529,53.218,346.6876,61.3813,98.4462,-0.0016007999999999,-0.00025681,0.0,0 STARLINK-3621,1 51769U 22017B   22244.91667824 -.00025681  00000-0 -16008-2 0  9998,2 51769  53.2180 346.6876 0001529  61.3813  98.4462 15.08850056  1303,6917.85,95.437,540.7719999999998,538.6569999999998,0.0
51769.0,STARLINK-3621,PAYLOAD,2022-09-02 14:00:01,15.08849989,0.000159,53.2183,343.6954,60.7346,122.2884,-0.0010353,-0.00016732,0.0,0 STARLINK-3621,1 51769U 22017B   22245.58334491 -.00016732  00000-0 -10353-2 0  9997,2 51769  53.2183 343.6954 0001590  60.7346 122.2884 15.08849989  1309,6917.85,95.437,540.815,538.615,0.0
51769.0,STARLINK-3621,PAYLOAD,2022-09-02 16:00:00,15.08840182,0.0001594,53.2184,343.3216,58.9615,216.9648,4.7348e-05,4.66e-06,0.0,0 STARLINK-3621,1 51769U 22017B   22245.66667824  .00000466  00000-0  47348-4 0  9996,2 51769  53.2184 343.3216 0001594  58.9615 216.9648 15.08840182 30217,6917.88,95.438,540.8480000000002,538.6419999999998,0.0
51769.0,STARLINK-3621,PAYLOAD,2022-09-02 22:00:01,15.08852226,0.0001465,53.2183,342.1982,59.0668,135.6182,-0.002919,-0.0004646,0.0,0 STARLINK-3621,1 51769U 22017B   22245.91668981 -.00046460  00000-0 -29190-2 0  9998,2 51769  53.2183 342.1982 0001465  59.0668 135.6182 15.08852226  1300,6917.843000000003,95.437,540.721,538.695,0.0
51769.0,STARLINK-3621,PAYLOAD,2022-09-03 14:00:01,15.08833251,0.0001530999999999,53.2186,339.2063,57.3085,160.4983,0.00055348,8.53e-05,0.0,0 STARLINK-3621,1 51769U 22017B   22246.58334491  .00008530  00000-0  55348-3 0  9997,2 51769  53.2186 339.2063 0001531  57.3085 160.4983 15.08833251  1300,6917.901,95.438,540.825,538.707,0.0
51769.0,STARLINK-3621,PAYLOAD,2022-09-03 22:00:00,15.0886896,0.0001446,53.2186,337.709,58.2042,171.1991,-0.0016101,-0.00025841,0.0,0 STARLINK-3621,1 51769U 22017B   22246.91667824 -.00025841  00000-0 -16101-2 0  9992,2 51769  53.2186 337.7090 0001446  58.2042 171.1991 15.08868960 30407,6917.792,95.436,540.6569999999998,538.6569999999998,0.0
